[{"OBJECT_NAME":"ONEWEB-0281","OBJECT_ID":"2021-060AJ","EPOCH":"2025-09-19T06:56:26.552544","MEAN_MOTION":13.16593945,"ECCENTRICITY":0.00018982,"INCLINATION":87.8977,"RA_OF_ASC_NODE":282.7603,"ARG_OF_PERICENTER":88.0051,"MEAN_ANOMALY":272.1298,"EPHEMERIS_TYPE":0,"CLASSIFICATION_TYPE":"U","NORAD_CAT_ID":48999,"ELEMENT_SET_NO":999,"REV_AT_EPOCH":20398,"BSTAR":0.00021252277,"MEAN_MOTION_DOT":9.4e-7,"MEAN_MOTION_DDOT":0},{"OBJECT_NAME":"ONEWEB-0282","OBJECT_ID":"2021-060AK","EPOCH":"2025-09-19T00:21:59.873184","MEAN_MOTION":13.16595069,"ECCENTRICITY":0.00017217,"INCLINATION":87.898,"RA_OF_ASC_NODE":282.8243,"ARG_OF_PERICENTER":96.7956,"MEAN_ANOMALY":263.3371,"EPHEMERIS_TYPE":0,"CLASSIFICATION_TYPE":"U","NORAD_CAT_ID":49000,"ELEMENT_SET_NO":999,"REV_AT_EPOCH":20392,"BSTAR":-4.8963673e-5,"MEAN_MOTION_DOT":-6.0e-8,"MEAN_MOTION_DDOT":0},{"OBJECT_NAME":"ONEWEB-0283","OBJECT_ID":"2021-060AL","EPOCH":"2025-09-19T07:23:46.097952","MEAN_MOTION":13.16596793,"ECCENTRICITY":0.00016795,"INCLINATION":87.8975,"RA_OF_ASC_NODE":282.7686,"ARG_OF_PERICENTER":91.1246,"MEAN_ANOMALY":269.0077,"EPHEMERIS_TYPE":0,"CLASSIFICATION_TYPE":"U","NORAD_CAT_ID":49001,"ELEMENT_SET_NO":999,"REV_AT_EPOCH":20397,"BSTAR":4.1633469e-5,"MEAN_MOTION_DOT":2.9e-7,"MEAN_MOTION_DDOT":0},{"OBJECT_NAME":"ONEWEB-0284","OBJECT_ID":"2021-060AM","EPOCH":"2025-09-19T07:14:39.941952","MEAN_MOTION":13.16595556,"ECCENTRICITY":0.00020716,"INCLINATION":87.8984,"RA_OF_ASC_NODE":282.752,"ARG_OF_PERICENTER":99.3418,"MEAN_ANOMALY":260.7947,"EPHEMERIS_TYPE":0,"CLASSIFICATION_TYPE":"U","NORAD_CAT_ID":49002,"ELEMENT_SET_NO":999,"REV_AT_EPOCH":20395,"BSTAR":9.8486984e-5,"MEAN_MOTION_DOT":5.1e-7,"MEAN_MOTION_DDOT":0},{"OBJECT_NAME":"ONEWEB-0285","OBJECT_ID":"2021-075A","EPOCH":"2025-09-18T23:03:45.847584","MEAN_MOTION":13.12442827,"ECCENTRICITY":0.00016761,"INCLINATION":87.8912,"RA_OF_ASC_NODE":44.5428,"ARG_OF_PERICENTER":97.5263,"MEAN_ANOMALY":262.6056,"EPHEMERIS_TYPE":0,"CLASSIFICATION_TYPE":"U","NORAD_CAT_ID":49075,"ELEMENT_SET_NO":999,"REV_AT_EPOCH":19963,"BSTAR":-0.0010671395,"MEAN_MOTION_DOT":-3.71e-6,"MEAN_MOTION_DDOT":0},{"OBJECT_NAME":"ONEWEB-0286","OBJECT_ID":"2021-075B","EPOCH":"2025-09-18T22:37:40.098144","MEAN_MOTION":13.12440618,"ECCENTRICITY":0.00018518,"INCLINATION":87.8915,"RA_OF_ASC_NODE":44.5816,"ARG_OF_PERICENTER":93.319,"MEAN_ANOMALY":266.815,"EPHEMERIS_TYPE":0,"CLASSIFICATION_TYPE":"U","NORAD_CAT_ID":49076,"ELEMENT_SET_NO":999,"REV_AT_EPOCH":19898,"BSTAR":0.00028962926,"MEAN_MOTION_DOT":1.17e-6,"MEAN_MOTION_DDOT":0},{"OBJECT_NAME":"ONEWEB-0287","OBJECT_ID":"2021-075C","EPOCH":"2025-09-19T03:36:40.170816","MEAN_MOTION":13.17648806,"ECCENTRICITY":0.0002037,"INCLINATION":87.9057,"RA_OF_ASC_NODE":59.7716,"ARG_OF_PERICENTER":90.4133,"MEAN_ANOMALY":269.7232,"EPHEMERIS_TYPE":0,"CLASSIFICATION_TYPE":"U","NORAD_CAT_ID":49077,"ELEMENT_SET_NO":999,"REV_AT_EPOCH":19793,"BSTAR":0.00014686188,"MEAN_MOTION_DOT":7.0e-7,"MEAN_MOTION_DDOT":0},{"OBJECT_NAME":"ONEWEB-0288","OBJECT_ID":"2021-075D","EPOCH":"2025-09-19T03:32:10.734144","MEAN_MOTION":13.12444695,"ECCENTRICITY":0.00018197,"INCLINATION":87.8911,"RA_OF_ASC_NODE":44.5008,"ARG_OF_PERICENTER":99.9099,"MEAN_ANOMALY":260.2235,"EPHEMERIS_TYPE":0,"CLASSIFICATION_TYPE":"U","NORAD_CAT_ID":49078,"ELEMENT_SET_NO":999,"REV_AT_EPOCH":19963,"BSTAR":0.0010107583,"MEAN_MOTION_DOT":3.76e-6,"MEAN_MOTION_DDOT":0},{"OBJECT_NAME":"ONEWEB-0289","OBJECT_ID":"2021-075E","EPOCH":"2025-09-19T04:32:21.331392","MEAN_MOTION":13.17649031,"ECCENTRICITY":0.00017409,"INCLINATION":87.9045,"RA_OF_ASC_NODE":59.7887,"ARG_OF_PERICENTER":107.8674,"MEAN_ANOMALY":252.2648,"EPHEMERIS_TYPE":0,"CLASSIFICATION_TYPE":"U","NORAD_CAT_ID":49079,"ELEMENT_SET_NO":999,"REV_AT_EPOCH":19851,"BSTAR":0.00020661683,"MEAN_MOTION_DOT":9.3e-7,"MEAN_MOTION_DDOT":0},{"OBJECT_NAME":"ONEWEB-0290","OBJECT_ID":"2021-075F","EPOCH":"2025-09-19T03:53:40.332768","MEAN_MOTION":13.17646667,"ECCENTRICITY":0.00015273,"INCLINATION":87.9055,"RA_OF_ASC_NODE":59.7489,"ARG_OF_PERICENTER":114.1503,"MEAN_ANOMALY":245.9789,"EPHEMERIS_TYPE":0,"CLASSIFICATION_TYPE":"U","NORAD_CAT_ID":49080,"ELEMENT_SET_NO":999,"REV_AT_EPOCH":19792,"BSTAR":-0.00012614467,"MEAN_MOTION_DOT":-3.6e-7,"MEAN_MOTION_DDOT":0},{"OBJECT_NAME":"ONEWEB-0291","OBJECT_ID":"2021-075G","EPOCH":"2025-09-19T03:31:48.990720","MEAN_MOTION":13.17648013,"ECCENTRICITY":0.00020516,"INCLINATION":87.9059,"RA_OF_ASC_NODE":59.7567,"ARG_OF_PERICENTER":99.0797,"MEAN_ANOMALY":261.0567,"EPHEMERIS_TYPE":0,"CLASSIFICATION_TYPE":"U","NORAD_CAT_ID":49081,"ELEMENT_SET_NO":999,"REV_AT_EPOCH":19791,"BSTAR":1.3538295e-5,"MEAN_MOTION_DOT":1.8e-7,"MEAN_MOTION_DDOT":0},{"OBJECT_NAME":"ONEWEB-0293","OBJECT_ID":"2021-075H","EPOCH":"2025-09-19T04:08:15.029952","MEAN_MOTION":13.17647334,"ECCENTRICITY":0.00017278,"INCLINATION":87.9046,"RA_OF_ASC_NODE":59.7803,"ARG_OF_PERICENTER":97.8753,"MEAN_ANOMALY":262.2575,"EPHEMERIS_TYPE":0,"CLASSIFICATION_TYPE":"U","NORAD_CAT_ID":49082,"ELEMENT_SET_NO":999,"REV_AT_EPOCH":19794,"BSTAR":1.0275071e-5,"MEAN_MOTION_DOT":1.7e-7,"MEAN_MOTION_DDOT":0},{"OBJECT_NAME":"ONEWEB-0294","OBJECT_ID":"2021-075J","EPOCH":"2025-09-19T03:41:31.892640","MEAN_MOTION":13.12443659,"ECCENTRICITY":0.00017541,"INCLINATION":87.8912,"RA_OF_ASC_NODE":44.5002,"ARG_OF_PERICENTER":111.1622,"MEAN_ANOMALY":248.9694,"EPHEMERIS_TYPE":0,"CLASSIFICATION_TYPE":"U","NORAD_CAT_ID":49083,"ELEMENT_SET_NO":999,"REV_AT_EPOCH":19902,"BSTAR":0.0012364526,"MEAN_MOTION_DOT":4.58e-6,"MEAN_MOTION_DDOT":0},{"OBJECT_NAME":"ONEWEB-0295","OBJECT_ID":"2021-075K","EPOCH":"2025-09-19T04:07:02.659584","MEAN_MOTION":13.17648553,"ECCENTRICITY":0.00020784,"INCLINATION":87.9053,"RA_OF_ASC_NODE":59.7843,"ARG_OF_PERICENTER":97.1826,"MEAN_ANOMALY":262.9542,"EPHEMERIS_TYPE":0,"CLASSIFICATION_TYPE":"U","NORAD_CAT_ID":49084,"ELEMENT_SET_NO":999,"REV_AT_EPOCH":19790,"BSTAR":0.00010274088,"MEAN_MOTION_DOT":5.3e-7,"MEAN_MOTION_DDOT":0},{"OBJECT_NAME":"ONEWEB-0296","OBJECT_ID":"2021-075L","EPOCH":"2025-09-18T21:44:08.088288","MEAN_MOTION":13.12446156,"ECCENTRICITY":0.00020911,"INCLINATION":87.891,"RA_OF_ASC_NODE":44.5543,"ARG_OF_PERICENTER":107.9268,"MEAN_ANOMALY":252.2088,"EPHEMERIS_TYPE":0,"CLASSIFICATION_TYPE":"U","NORAD_CAT_ID":49085,"ELEMENT_SET_NO":999,"REV_AT_EPOCH":19899,"BSTAR":-0.0019317562,"MEAN_MOTION_DOT":-6.82e-6,"MEAN_MOTION_DDOT":0},{"OBJECT_NAME":"ONEWEB-0297","OBJECT_ID":"2021-075M","EPOCH":"2025-09-18T22:28:30.982080","MEAN_MOTION":13.12443622,"ECCENTRICITY":0.00017643,"INCLINATION":87.8903,"RA_OF_ASC_NODE":44.5861,"ARG_OF_PERICENTER":95.1103,"MEAN_ANOMALY":265.0227,"EPHEMERIS_TYPE":0,"CLASSIFICATION_TYPE":"U","NORAD_CAT_ID":49086,"ELEMENT_SET_NO":999,"REV_AT_EPOCH":19960,"BSTAR":0.00089252351,"MEAN_MOTION_DOT":3.34e-6,"MEAN_MOTION_DDOT":0},{"OBJECT_NAME":"ONEWEB-0298","OBJECT_ID":"2021-075N","EPOCH":"2025-09-19T04:13:18.430464","MEAN_MOTION":13.17647019,"ECCENTRICITY":0.00017141,"INCLINATION":87.9052,"RA_OF_ASC_NODE":59.7776,"ARG_OF_PERICENTER":91.1583,"MEAN_ANOMALY":268.9745,"EPHEMERIS_TYPE":0,"CLASSIFICATION_TYPE":"U","NORAD_CAT_ID":49087,"ELEMENT_SET_NO":999,"REV_AT_EPOCH":19793,"BSTAR":-1.6863917e-5,"MEAN_MOTION_DOT":6.0e-8,"MEAN_MOTION_DDOT":0}]
