ONEWEB-0281             
1 48999U 21060AJ  25262.28919621  .00000094  00000+0  21252-3 0  9990
2 48999  87.8977 282.7603 0001898  88.0051 272.1298 13.16593945203982
ONEWEB-0282             
1 49000U 21060AK  25262.01527631 -.00000006  00000+0 -48964-4 0  9996
2 49000  87.8980 282.8243 0001721  96.7956 263.3371 13.16595069203923
ONEWEB-0283             
1 49001U 21060AL  25262.30817243  .00000029  00000+0  41633-4 0  9999
2 49001  87.8975 282.7686 0001679  91.1246 269.0077 13.16596793203977
ONEWEB-0284             
1 49002U 21060AM  25262.30185118  .00000051  00000+0  98487-4 0  9993
2 49002  87.8984 282.7520 0002071  99.3418 260.7947 13.16595556203951
ONEWEB-0285             
1 49075U 21075A   25261.96094731 -.00000371  00000+0 -10671-2 0  9994
2 49075  87.8912  44.5428 0001676  97.5263 262.6056 13.12442827199630
ONEWEB-0286             
1 49076U 21075B   25261.94282521  .00000117  00000+0  28963-3 0  9999
2 49076  87.8915  44.5816 0001851  93.3190 266.8150 13.12440618198987
ONEWEB-0287             
1 49077U 21075C   25262.15046494  .00000070  00000+0  14686-3 0  9996
2 49077  87.9057  59.7716 0002037  90.4133 269.7232 13.17648806197936
ONEWEB-0288             
1 49078U 21075D   25262.14734646  .00000376  00000+0  10108-2 0  9992
2 49078  87.8911  44.5008 0001819  99.9099 260.2235 13.12444695199636
ONEWEB-0289             
1 49079U 21075E   25262.18913578  .00000093  00000+0  20662-3 0  9993
2 49079  87.9045  59.7887 0001740 107.8674 252.2648 13.17649031198511
ONEWEB-0290             
1 49080U 21075F   25262.16227237 -.00000036  00000+0 -12614-3 0  9990
2 49080  87.9055  59.7489 0001527 114.1503 245.9789 13.17646667197928
ONEWEB-0291             
1 49081U 21075G   25262.14709480  .00000018  00000+0  13538-4 0  9999
2 49081  87.9059  59.7567 0002051  99.0797 261.0567 13.17648013197918
ONEWEB-0293             
1 49082U 21075H   25262.17239618  .00000017  00000+0  10275-4 0  9998
2 49082  87.9046  59.7803 0001727  97.8753 262.2575 13.17647334197945
ONEWEB-0294             
1 49083U 21075J   25262.15384135  .00000458  00000+0  12365-2 0  9991
2 49083  87.8912  44.5002 0001754 111.1622 248.9694 13.12443659199028
ONEWEB-0295             
1 49084U 21075K   25262.17155856  .00000053  00000+0  10274-3 0  9999
2 49084  87.9053  59.7843 0002078  97.1826 262.9542 13.17648553197904
ONEWEB-0296             
1 49085U 21075L   25261.90564917 -.00000682  00000+0 -19318-2 0  9999
2 49085  87.8910  44.5543 0002091 107.9268 252.2088 13.12446156198997
ONEWEB-0297             
1 49086U 21075M   25261.93646970  .00000334  00000+0  89252-3 0  9990
2 49086  87.8903  44.5861 0001764  95.1103 265.0227 13.12443622199606
ONEWEB-0298             
1 49087U 21075N   25262.17590776  .00000006  00000+0 -16864-4 0  9997
2 49087  87.9052  59.7776 0001714  91.1583 268.9745 13.17647019197931
